OBJECT_NAME,OBJECT_ID,EPOCH,MEAN_MOTION,ECCENTRICITY,INCLINATION,RA_OF_ASC_NODE,ARG_OF_PERICENTER,MEAN_ANOMALY,EPHEMERIS_TYPE,CLASSIFICATION_TYPE,NORAD_CAT_ID,ELEMENT_SET_NO,REV_AT_EPOCH,BSTAR,MEAN_MOTION_DOT,MEAN_MOTION_DDOT
DMSP 5D-3 F16 (USA 172),2003-048A,2026-07-15T22:54:53.936352,14.14484796,.00080803,98.9897,220.9724,69.2813,354.1005,0,U,28054,999,17355,-.5157394E-5,-.55E-6,0
METEOSAT-9 (MSG-2),2005-049B,2026-07-15T17:00:30.811680,1.00272260,.0002207,9.4242,53.8824,356.2900,184.1676,0,U,28912,999,728,0,.11E-5,0
DMSP 5D-3 F17 (USA 191),2006-050A,2026-07-15T22:46:46.629984,14.14996229,.0009676,98.7387,202.9316,340.6486,19.4319,0,U,29522,999,1649,.4509618E-5,-.35E-6,0
FENGYUN 3A,2008-026A,2026-07-15T10:51:04.601376,14.19576552,.00096614,98.6886,136.7574,51.1669,309.0369,0,U,32958,999,93941,.3210857E-4,.24E-6,0
EWS-G3 (GOES 14),2009-033A,2026-07-15T20:48:19.703808,1.00097745,.00019348,1.7617,82.6827,40.2559,247.5023,0,U,35491,999,687,0,-.37E-5,0
DMSP 5D-3 F18 (USA 210),2009-057A,2026-07-15T22:08:09.994560,14.14911964,.00112708,98.9056,177.6317,163.4604,196.6939,0,U,35951,999,86365,.11321454E-3,.174E-5,0
EWS-G2 (GOES 15),2010-008A,2026-07-15T22:13:25.917024,1.00268451,.00052519,1.3549,82.4479,53.8234,194.1532,0,U,36411,999,5992,0,.11E-6,0
COMS 1,2010-032A,2026-07-15T21:43:51.935808,0.99167762,.00112151,4.8770,75.0084,14.9702,128.9717,0,U,36744,999,5137,0,-.254E-5,0
FENGYUN 3B,2010-059A,2026-07-15T22:47:29.028192,14.14845726,.00231868,98.9607,243.0836,104.4533,341.4744,0,U,37214,999,81149,-.1613787E-3,-.357E-5,0
SUOMI NPP,2011-061A,2026-07-15T22:59:16.621728,14.19522652,.00007788,98.7955,137.6383,209.6031,150.5101,0,U,37849,999,76252,.26794147E-4,.12E-6,0
METEOSAT-10 (MSG-3),2012-035B,2026-07-15T21:55:13.346688,1.00271019,.00011815,4.7379,60.8778,16.6551,185.0701,0,U,38552,999,5114,0,-.2E-6,0
METOP-B,2012-049A,2026-07-15T21:49:05.226528,14.21446526,.0001092,98.6490,247.8331,251.4240,108.6819,0,U,38771,999,71734,.43027239E-4,.51E-6,0
INSAT-3D,2013-038B,2026-07-15T22:32:24.098784,1.00268173,.00005273,1.9984,82.1751,79.1322,240.0595,0,U,39216,999,4736,0,-.351E-5,0
FENGYUN 3C,2013-052A,2026-07-15T22:46:51.726720,14.15760894,.00136394,98.4999,169.5064,303.6275,56.3598,0,U,39260,999,66263,.34386917E-4,.26E-6,0
METEOR-M 2,2014-037A,2026-07-15T22:26:27.432672,14.21468619,.00051291,98.5126,171.6581,324.5271,35.5565,0,U,40069,999,62340,-.78719937E-4,-.214E-5,0
HIMAWARI-8,2014-060A,2026-07-15T22:35:31.299936,1.00271236,.00011027,0.0175,14.6307,153.4825,245.2159,0,U,40267,999,4304,0,-.286E-5,0
FENGYUN 2G,2014-090A,2026-07-15T16:03:00.204768,1.00280690,.00042883,5.7079,72.4671,171.8076,29.3146,0,U,40367,999,4228,0,-.315E-5,0
METEOSAT-11 (MSG-4),2015-034A,2026-07-15T20:15:23.382432,1.00272062,.0002163,3.2706,70.9273,354.3831,181.4716,0,U,40732,999,750,0,.5E-6,0
ELEKTRO-L 2,2015-074A,2026-07-15T21:51:13.730112,1.00272056,.00010118,6.7637,70.1659,213.0410,323.8484,0,U,41105,999,3879,0,-.131E-5,0
SENTINEL-3A,2016-011A,2026-07-15T21:35:31.818912,14.26739869,.00013578,98.6237,263.8689,89.6135,270.5201,0,U,41335,999,54215,.37625562E-4,.47E-6,0
INSAT-3DR,2016-054A,2026-07-15T22:16:33.118176,1.00270770,.00105486,0.0718,88.7117,181.2198,71.9674,0,U,41752,999,3610,0,-.87E-6,0
HIMAWARI-9,2016-064A,2026-07-15T22:35:31.299936,1.00271902,.0001915,0.0394,252.9658,278.3797,242.0457,0,U,41836,999,3549,0,-.285E-5,0
GOES 16,2016-071A,2026-07-15T16:17:38.257728,1.00270998,.00005332,0.4052,85.4652,94.4235,253.3464,0,U,41866,999,3538,0,-.101E-5,0
FENGYUN 4A,2016-077A,2026-07-15T20:48:04.728096,1.00267758,.00084993,2.3930,79.9483,159.6393,129.8761,0,U,41882,999,3521,0,-.369E-5,0
CYGFM05,2016-078A,2026-07-15T21:34:00.761088,15.57876423,.00058165,34.9569,70.2864,44.2389,315.8800,0,U,41884,999,53323,.19955025E-3,.15375E-3,0
CYGFM04,2016-078B,2026-07-15T20:10:10.444224,15.63106576,.00041442,34.9324,36.8674,92.5191,267.6009,0,U,41885,999,53348,.22046259E-3,.20801E-3,0
CYGFM02,2016-078C,2026-07-15T21:51:59.304384,15.66396547,.00049061,34.9406,30.0489,96.3405,263.7881,0,U,41886,999,53367,.23954332E-3,.25803E-3,0
CYGFM01,2016-078D,2026-07-15T22:31:23.782080,15.58597321,.00058424,34.9397,70.8401,37.4839,322.6292,0,U,41887,999,53319,.20220605E-3,.16015E-3,0
CYGFM08,2016-078E,2026-07-15T21:51:25.170336,15.61483433,.00060917,34.9432,49.8165,76.4314,283.7090,0,U,41888,999,53346,.22159587E-3,.19626E-3,0
CYGFM07,2016-078G,2026-07-15T22:21:56.083968,15.61593461,.00045606,34.9448,37.9907,93.8617,266.2631,0,U,41890,999,53349,.22238106E-3,.19773E-3,0
CYGFM03,2016-078H,2026-07-15T21:40:27.973920,15.61578855,.00044419,34.9403,40.1124,74.8092,285.3125,0,U,41891,999,53346,.22022956E-3,.19569E-3,0
