DMSP 5D-3 F16 (USA 172) 
1 28054U 03048A   26196.95479093 -.00000055  00000+0 -51574-5 0  9992
2 28054  98.9897 220.9724 0008080  69.2813 354.1005 14.14484796173559
METEOSAT-9 (MSG-2)      
1 28912U 05049B   26196.70868995  .00000110  00000+0  00000+0 0  9996
2 28912   9.4242  53.8824 0002207 356.2900 184.1676  1.00272260  7281
DMSP 5D-3 F17 (USA 191) 
1 29522U 06050A   26196.94915081 -.00000035  00000+0  45096-5 0  9999
2 29522  98.7387 202.9316 0009676 340.6486  19.4319 14.14996229 16490
FENGYUN 3A              
1 32958U 08026A   26196.45213659  .00000024  00000+0  32109-4 0  9996
2 32958  98.6886 136.7574 0009661  51.1669 309.0369 14.19576552939418
EWS-G3 (GOES 14)        
1 35491U 09033A   26196.86689472 -.00000370  00000+0  00000+0 0  9990
2 35491   1.7617  82.6827 0001934  40.2559 247.5023  1.00097745  6878
DMSP 5D-3 F18 (USA 210) 
1 35951U 09057A   26196.92233790  .00000174  00000+0  11321-3 0  9995
2 35951  98.9056 177.6317 0011270 163.4604 196.6939 14.14911964863650
EWS-G2 (GOES 15)        
1 36411U 10008A   26196.92599441  .00000011  00000+0  00000+0 0  9991
2 36411   1.3549  82.4479 0005251  53.8234 194.1532  1.00268451 59928
COMS 1                  
1 36744U 10032A   26196.90546222 -.00000254  00000+0  00000+0 0  9994
2 36744   4.8770  75.0084 0011215  14.9702 128.9717  0.99167762 51377
FENGYUN 3B              
1 37214U 10059A   26196.94964153 -.00000357  00000+0 -16138-3 0  9995
2 37214  98.9607 243.0836 0023186 104.4533 341.4744 14.14845726811496
SUOMI NPP               
1 37849U 11061A   26196.95783127  .00000012  00000+0  26794-4 0  9990
2 37849  98.7955 137.6383 0000778 209.6031 150.5101 14.19522652762522
METEOSAT-10 (MSG-3)     
1 38552U 12035B   26196.91334892 -.00000020  00000+0  00000+0 0  9998
2 38552   4.7379  60.8778 0001181  16.6551 185.0701  1.00271019 51140
METOP-B                 
1 38771U 12049A   26196.90908827  .00000051  00000+0  43027-4 0  9994
2 38771  98.6490 247.8331 0001092 251.4240 108.6819 14.21446526717342
INSAT-3D                
1 39216U 13038B   26196.93916781 -.00000351  00000+0  00000+0 0  9992
2 39216   1.9984  82.1751 0000527  79.1322 240.0595  1.00268173 47369
FENGYUN 3C              
1 39260U 13052A   26196.94920980  .00000026  00000+0  34387-4 0  9992
2 39260  98.4999 169.5064 0013639 303.6275  56.3598 14.15760894662633
METEOR-M 2              
1 40069U 14037A   26196.93503973 -.00000214  00000+0 -78720-4 0  9993
2 40069  98.5126 171.6581 0005129 324.5271  35.5565 14.21468619623408
HIMAWARI-8              
1 40267U 14060A   26196.94133449 -.00000286  00000+0  00000+0 0  9996
2 40267   0.0175  14.6307 0001102 153.4825 245.2159  1.00271236 43048
FENGYUN 2G              
1 40367U 14090A   26196.66875237 -.00000315  00000+0  00000+0 0  9990
2 40367   5.7079  72.4671 0004288 171.8076  29.3146  1.00280690 42286
METEOSAT-11 (MSG-4)     
1 40732U 15034A   26196.84402063  .00000050  00000+0  00000+0 0  9993
2 40732   3.2706  70.9273 0002163 354.3831 181.4716  1.00272062  7503
ELEKTRO-L 2             
1 41105U 15074A   26196.91057558 -.00000131  00000+0  00000+0 0  9996
2 41105   6.7637  70.1659 0001011 213.0410 323.8484  1.00272056 38796
SENTINEL-3A             
1 41335U 16011A   26196.89967383  .00000047  00000+0  37626-4 0  9990
2 41335  98.6237 263.8689 0001357  89.6135 270.5201 14.26739869542152
INSAT-3DR               
1 41752U 16054A   26196.92816109 -.00000087  00000+0  00000+0 0  9999
2 41752   0.0718  88.7117 0010548 181.2198  71.9674  1.00270770 36105
HIMAWARI-9              
1 41836U 16064A   26196.94133449 -.00000285  00000+0  00000+0 0  9994
2 41836   0.0394 252.9658 0001915 278.3797 242.0457  1.00271902 35493
GOES 16                 
1 41866U 16071A   26196.67891502 -.00000101  00000+0  00000+0 0  9993
2 41866   0.4052  85.4652 0000533  94.4235 253.3464  1.00270998 35388
FENGYUN 4A              
1 41882U 16077A   26196.86672139 -.00000369  00000+0  00000+0 0  9997
2 41882   2.3930  79.9483 0008499 159.6393 129.8761  1.00267758 35219
CYGFM05                 
1 41884U 16078A   26196.89861992  .00015375  00000+0  19955-3 0  9995
2 41884  34.9569  70.2864 0005816  44.2389 315.8800 15.57876423533239
CYGFM04                 
1 41885U 16078B   26196.84039866  .00020801  00000+0  22046-3 0  9993
2 41885  34.9324  36.8674 0004144  92.5191 267.6009 15.63106576533480
CYGFM02                 
1 41886U 16078C   26196.91110306  .00025803  00000+0  23954-3 0  9997
2 41886  34.9406  30.0489 0004906  96.3405 263.7881 15.66396547533676
CYGFM01                 
1 41887U 16078D   26196.93846970  .00016015  00000+0  20221-3 0  9992
2 41887  34.9397  70.8401 0005842  37.4839 322.6292 15.58597321533191
CYGFM08                 
1 41888U 16078E   26196.91070799  .00019626  00000+0  22160-3 0  9994
2 41888  34.9432  49.8165 0006091  76.4314 283.7090 15.61483433533468
CYGFM07                 
1 41890U 16078G   26196.93189912  .00019773  00000+0  22238-3 0  9996
2 41890  34.9448  37.9907 0004560  93.8617 266.2631 15.61593461533491
CYGFM03                 
1 41891U 16078H   26196.90310155  .00019569  00000+0  22023-3 0  9994
2 41891  34.9403  40.1124 0004441  74.8092 285.3125 15.61578855533461
